start=new Date('2023-05-12T00:00:00.000Z').valueOf();
sats=[{"CENTER_NAME":"EARTH","TIME_SYSTEM":"UTC","ARG_OF_PERICENTER":"79.2205","OBJECT_NAME":"STARLINK-3301","TLE_LINE1":"1 50169U 21125P   23131.93168771  .00002469  00000-0  17311-3 0  9991","OBJECT_ID":"2021-125P","ECCENTRICITY":"0.00012230","REV_AT_EPOCH":"8069","GP_ID":"231635259","FILE":"3905576","DECAY_DATE":null,"MEAN_ANOMALY":"280.8925","RCS_SIZE":"LARGE","RA_OF_ASC_NODE":"205.3526","EPHEMERIS_TYPE":"0","SEMIMAJOR_AXIS":"6917.868","OBJECT_TYPE":"PAYLOAD","COUNTRY_CODE":"US","INCLINATION":"53.2143","REF_FRAME":"TEME","APOAPSIS":"540.579","TLE_LINE2":"2 50169  53.2143 205.3526 0001223  79.2205 280.8925 15.08844024 80690","MEAN_MOTION":"15.08844024","EPOCH":"2023-05-11T22:21:37.818144","BSTAR":"0.00017311000000","MEAN_MOTION_DOT":"0.00002469","ELEMENT_SET_NO":"999","NORAD_CAT_ID":"50169","CLASSIFICATION_TYPE":"U","SITE":"AFWTR","PERIAPSIS":"538.887","MEAN_MOTION_DDOT":"0.0000000000000","LAUNCH_DATE":"2021-12-18","PERIOD":"95.437","MEAN_ELEMENT_THEORY":"SGP4"},{"TLE_LINE1":"1 50170U 21125Q   23131.49011194  .00020238  00000-0  12888-2 0  9997","OBJECT_NAME":"STARLINK-3245","ARG_OF_PERICENTER":"91.6206","TIME_SYSTEM":"UTC","CENTER_NAME":"EARTH","INCLINATION":"53.2169","COUNTRY_CODE":"US","OBJECT_TYPE":"PAYLOAD","EPHEMERIS_TYPE":"0","RA_OF_ASC_NODE":"207.3276","SEMIMAJOR_AXIS":"6918.122","RCS_SIZE":"LARGE","DECAY_DATE":null,"MEAN_ANOMALY":"268.4944","FILE":"3905179","GP_ID":"231578870","REV_AT_EPOCH":"8013","ECCENTRICITY":"0.00013750","OBJECT_ID":"2021-125Q","MEAN_MOTION_DOT":"0.00020238","BSTAR":"0.00128880000000","EPOCH":"2023-05-11T11:45:45.671616","TLE_LINE2":"2 50170  53.2169 207.3276 0001375  91.6206 268.4944 15.08760843 80139","MEAN_MOTION":"15.08760843","REF_FRAME":"TEME","APOAPSIS":"540.939","MEAN_ELEMENT_THEORY":"SGP4","LAUNCH_DATE":"2021-12-18","PERIOD":"95.443","MEAN_MOTION_DDOT":"0.0000000000000","PERIAPSIS":"539.036","SITE":"AFWTR","CLASSIFICATION_TYPE":"U","NORAD_CAT_ID":"50170","ELEMENT_SET_NO":"999"},{"CENTER_NAME":"EARTH","TIME_SYSTEM":"UTC","OBJECT_NAME":"STARLINK-3286","ARG_OF_PERICENTER":"90.1716","TLE_LINE1":"1 50171U 21125R   23131.90224715  .00000004  00000-0  18357-4 0  9997","REV_AT_EPOCH":"8068","ECCENTRICITY":"0.00011390","OBJECT_ID":"2021-125R","RCS_SIZE":"LARGE","MEAN_ANOMALY":"269.9407","DECAY_DATE":null,"FILE":"3905576","GP_ID":"231636761","INCLINATION":"53.2167","COUNTRY_CODE":"US","OBJECT_TYPE":"PAYLOAD","EPHEMERIS_TYPE":"0","RA_OF_ASC_NODE":"205.4776","SEMIMAJOR_AXIS":"6917.873","APOAPSIS":"540.526","REF_FRAME":"TEME","MEAN_MOTION":"15.08842563","TLE_LINE2":"2 50171  53.2167 205.4776 0001139  90.1716 269.9407 15.08842563 80680","EPOCH":"2023-05-11T21:39:14.153760","MEAN_MOTION_DOT":"0.00000004","BSTAR":"0.00001835700000","ELEMENT_SET_NO":"999","NORAD_CAT_ID":"50171","MEAN_MOTION_DDOT":"0.0000000000000","SITE":"AFWTR","PERIAPSIS":"538.950","CLASSIFICATION_TYPE":"U","MEAN_ELEMENT_THEORY":"SGP4","PERIOD":"95.437","LAUNCH_DATE":"2021-12-18"},{"SEMIMAJOR_AXIS":"6917.849","RA_OF_ASC_NODE":"207.3593","EPHEMERIS_TYPE":"0","OBJECT_TYPE":"PAYLOAD","COUNTRY_CODE":"US","INCLINATION":"53.2153","GP_ID":"231635509","FILE":"3905576","MEAN_ANOMALY":"239.9316","DECAY_DATE":null,"RCS_SIZE":"LARGE","OBJECT_ID":"2021-125S","ECCENTRICITY":"0.00013360","REV_AT_EPOCH":"8065","TLE_LINE1":"1 50172U 21125S   23131.48272529  .00005219  00000-0  34566-3 0  9999","ARG_OF_PERICENTER":"120.1809","OBJECT_NAME":"STARLINK-3287","TIME_SYSTEM":"UTC","CENTER_NAME":"EARTH","PERIOD":"95.437","LAUNCH_DATE":"2021-12-18","MEAN_ELEMENT_THEORY":"SGP4","CLASSIFICATION_TYPE":"U","PERIAPSIS":"538.790","SITE":"AFWTR","MEAN_MOTION_DDOT":"0.0000000000000","NORAD_CAT_ID":"50172","ELEMENT_SET_NO":"999","BSTAR":"0.00034566000000","MEAN_MOTION_DOT":"0.00005219","EPOCH":"2023-05-11T11:35:07.465056","TLE_LINE2":"2 50172  53.2153 207.3593 0001336 120.1809 239.9316 15.08850260 80656","MEAN_MOTION":"15.08850260","APOAPSIS":"540.638","REF_FRAME":"TEME"},{"APOAPSIS":"540.673","REF_FRAME":"TEME","TLE_LINE2":"2 50173  53.2146 195.4956 0001374  74.0972 286.0171 15.08847603 80838","MEAN_MOTION":"15.08847603","EPOCH":"2023-05-11T21:56:28.361760","MEAN_MOTION_DOT":"0.00003662","BSTAR":"0.00024799000000","ELEMENT_SET_NO":"999","NORAD_CAT_ID":"50173","MEAN_MOTION_DDOT":"0.0000000000000","PERIAPSIS":"538.772","SITE":"AFWTR","CLASSIFICATION_TYPE":"U","MEAN_ELEMENT_THEORY":"SGP4","PERIOD":"95.437","LAUNCH_DATE":"2021-12-18","CENTER_NAME":"EARTH","TIME_SYSTEM":"UTC","OBJECT_NAME":"STARLINK-3289","ARG_OF_PERICENTER":"74.0972","TLE_LINE1":"1 50173U 21125T   23131.91421715  .00003662  00000-0  24799-3 0  9998","REV_AT_EPOCH":"8083","ECCENTRICITY":"0.00013740","OBJECT_ID":"2021-125T","RCS_SIZE":"LARGE","DECAY_DATE":null,"MEAN_ANOMALY":"286.0171","FILE":"3905576","GP_ID":"231635759","INCLINATION":"53.2146","COUNTRY_CODE":"US","OBJECT_TYPE":"PAYLOAD","RA_OF_ASC_NODE":"195.4956","EPHEMERIS_TYPE":"0","SEMIMAJOR_AXIS":"6917.857"},{"REF_FRAME":"TEME","APOAPSIS":"540.553","TLE_LINE2":"2 50174  53.2148 205.3338 0001197  76.9010 283.2116 15.08846642 80732","MEAN_MOTION":"15.08846642","EPOCH":"2023-05-11T22:26:55.631904","BSTAR":"0.00017197000000","MEAN_MOTION_DOT":"0.00002451","ELEMENT_SET_NO":"999","NORAD_CAT_ID":"50174","CLASSIFICATION_TYPE":"U","SITE":"AFWTR","PERIAPSIS":"538.897","MEAN_MOTION_DDOT":"0.0000000000000","LAUNCH_DATE":"2021-12-18","PERIOD":"95.437","MEAN_ELEMENT_THEORY":"SGP4","CENTER_NAME":"EARTH","TIME_SYSTEM":"UTC","ARG_OF_PERICENTER":"76.9010","OBJECT_NAME":"STARLINK-3292","TLE_LINE1":"1 50174U 21125U   23131.93536611  .00002451  00000-0  17197-3 0  9992","OBJECT_ID":"2021-125U","ECCENTRICITY":"0.00011970","REV_AT_EPOCH":"8073","GP_ID":"231636511","FILE":"3905576","DECAY_DATE":null,"MEAN_ANOMALY":"283.2116","RCS_SIZE":"LARGE","RA_OF_ASC_NODE":"205.3338","EPHEMERIS_TYPE":"0","SEMIMAJOR_AXIS":"6917.860","OBJECT_TYPE":"PAYLOAD","COUNTRY_CODE":"US","INCLINATION":"53.2148"},{"LAUNCH_DATE":"2021-12-18","PERIOD":"95.437","MEAN_ELEMENT_THEORY":"SGP4","CLASSIFICATION_TYPE":"U","MEAN_MOTION_DDOT":"0.0000000000000","SITE":"AFWTR","PERIAPSIS":"538.938","NORAD_CAT_ID":"50175","ELEMENT_SET_NO":"999","MEAN_MOTION_DOT":"0.00001986","BSTAR":"0.00014279000000","EPOCH":"2023-05-11T11:51:01.180224","TLE_LINE2":"2 50175  53.2158 207.3102 0001128  99.8510 260.2610 15.08848973 80629","MEAN_MOTION":"15.08848973","REF_FRAME":"TEME","APOAPSIS":"540.498","OBJECT_TYPE":"PAYLOAD","RA_OF_ASC_NODE":"207.3102","EPHEMERIS_TYPE":"0","SEMIMAJOR_AXIS":"6917.853","INCLINATION":"53.2158","COUNTRY_CODE":"US","FILE":"3905576","GP_ID":"231636262","RCS_SIZE":"LARGE","DECAY_DATE":null,"MEAN_ANOMALY":"260.2610","ECCENTRICITY":"0.00011280","OBJECT_ID":"2021-125V","REV_AT_EPOCH":"8062","TLE_LINE1":"1 50175U 21125V   23131.49376366  .00001986  00000-0  14279-3 0  9993","ARG_OF_PERICENTER":"99.8510","OBJECT_NAME":"STARLINK-3291","TIME_SYSTEM":"UTC","CENTER_NAME":"EARTH"},{"CLASSIFICATION_TYPE":"U","MEAN_MOTION_DDOT":"0.0000000000000","SITE":"AFWTR","PERIAPSIS":"538.791","PERIOD":"95.437","LAUNCH_DATE":"2021-12-18","MEAN_ELEMENT_THEORY":"SGP4","ELEMENT_SET_NO":"999","NORAD_CAT_ID":"50176","EPOCH":"2023-05-11T22:32:14.147232","MEAN_MOTION_DOT":"0.00005309","BSTAR":"0.00035138000000","APOAPSIS":"540.682","REF_FRAME":"TEME","MEAN_MOTION":"15.08842825","TLE_LINE2":"2 50176  53.2158 205.3179 0001367  74.8396 285.2748 15.08842825 80733","FILE":"3905576","GP_ID":"231635010","RCS_SIZE":"LARGE","MEAN_ANOMALY":"285.2748","DECAY_DATE":null,"OBJECT_TYPE":"PAYLOAD","RA_OF_ASC_NODE":"205.3179","SEMIMAJOR_AXIS":"6917.872","EPHEMERIS_TYPE":"0","INCLINATION":"53.2158","COUNTRY_CODE":"US","ECCENTRICITY":"0.00013670","OBJECT_ID":"2021-125W","REV_AT_EPOCH":"8073","ARG_OF_PERICENTER":"74.8396","OBJECT_NAME":"STARLINK-3293","TLE_LINE1":"1 50176U 21125W   23131.93905263  .00005309  00000-0  35138-3 0  9997","CENTER_NAME":"EARTH","TIME_SYSTEM":"UTC"},{"PERIAPSIS":"539.057","SITE":"AFWTR","MEAN_MOTION_DDOT":"0.0000000000000","CLASSIFICATION_TYPE":"U","MEAN_ELEMENT_THEORY":"SGP4","PERIOD":"95.437","LAUNCH_DATE":"2021-12-18","ELEMENT_SET_NO":"999","NORAD_CAT_ID":"50177","EPOCH":"2023-05-11T11:40:25.646880","BSTAR":"0.00032566000000","MEAN_MOTION_DOT":"0.00004900","REF_FRAME":"TEME","APOAPSIS":"540.388","MEAN_MOTION":"15.08847452","TLE_LINE2":"2 50177  53.2151 207.3448 0000962 101.6498 258.4602 15.08847452 80136","MEAN_ANOMALY":"258.4602","DECAY_DATE":null,"RCS_SIZE":"LARGE","GP_ID":"231608193","FILE":"3905274","COUNTRY_CODE":"US","INCLINATION":"53.2151","RA_OF_ASC_NODE":"207.3448","SEMIMAJOR_AXIS":"6917.858","EPHEMERIS_TYPE":"0","OBJECT_TYPE":"PAYLOAD","REV_AT_EPOCH":"8013","ECCENTRICITY":"0.00009620","OBJECT_ID":"2021-125X","OBJECT_NAME":"STARLINK-3282","ARG_OF_PERICENTER":"101.6498","TLE_LINE1":"1 50177U 21125X   23131.48640795  .00004900  00000-0  32566-3 0  9992","CENTER_NAME":"EARTH","TIME_SYSTEM":"UTC"},{"TLE_LINE1":"1 50178U 21125Y   23131.89582662  .00000051  00000-0  21300-4 0  9994","ARG_OF_PERICENTER":"95.8309","OBJECT_NAME":"STARLINK-3284","TIME_SYSTEM":"UTC","CENTER_NAME":"EARTH","RA_OF_ASC_NODE":"205.3668","EPHEMERIS_TYPE":"0","SEMIMAJOR_AXIS":"6917.876","OBJECT_TYPE":"PAYLOAD","COUNTRY_CODE":"US","INCLINATION":"53.2162","GP_ID":"231614132","FILE":"3905541","DECAY_DATE":null,"MEAN_ANOMALY":"264.2835","RCS_SIZE":"LARGE","ECCENTRICITY":"0.00013310","OBJECT_ID":"2021-125Y","REV_AT_EPOCH":"8019","BSTAR":"0.00002130000000","MEAN_MOTION_DOT":"0.00000051","EPOCH":"2023-05-11T21:29:59.419968","TLE_LINE2":"2 50178  53.2162 205.3668 0001331  95.8309 264.2835 15.08841494 80196","MEAN_MOTION":"15.08841494","REF_FRAME":"TEME","APOAPSIS":"540.662","PERIOD":"95.437","LAUNCH_DATE":"2021-12-18","MEAN_ELEMENT_THEORY":"SGP4","CLASSIFICATION_TYPE":"U","SITE":"AFWTR","PERIAPSIS":"538.820","MEAN_MOTION_DDOT":"0.0000000000000","NORAD_CAT_ID":"50178","ELEMENT_SET_NO":"999"}];
